[
    {
        "Altitude(m)": 612502.2304916717,
        "Argument of Periapsis(deg)": 0.0,
        "Eccentricity": 0.0,
        "Inclination(deg)": 60.0,
        "Latitude(deg)": -28.136089249077514,
        "Longitude(deg)": -12.851699614083346,
        "Mean Anomaly(deg)": -32.727299999999985,
        "RAAN(deg)": 105.0,
        "Satellite Name": "Test1 482",
        "Satellite Number": 482,
        "Semi-Major Axis(m)": 6980739.136638005,
        "Time(s)": 0
    },
    {
        "Altitude(m)": 612308.677762467,
        "Argument of Periapsis(deg)": 0.00010418945913296404,
        "Eccentricity": 0.0,
        "Inclination(deg)": 60.0,
        "Latitude(deg)": -27.623143968276512,
        "Longitude(deg)": -12.498226187324354,
        "Mean Anomaly(deg)": -32.107193854538146,
        "RAAN(deg)": 104.99957995086028,
        "Satellite Name": "Test1 482",
        "Satellite Number": 482,
        "Semi-Major Axis(m)": 6980739.136638005,
        "Time(s)": 10
    }
]